[{"OBJECT_NAME":"DONGPO 08","OBJECT_ID":"2022-167E","EPOCH":"2026-03-09T22:57:52.742880","MEAN_MOTION":15.31542505,"ECCENTRICITY":0.00092155,"INCLINATION":97.6764,"RA_OF_ASC_NODE":233.3854,"ARG_OF_PERICENTER":153.9158,"MEAN_ANOMALY":206.2548,"EPHEMERIS_TYPE":0,"CLASSIFICATION_TYPE":"U","NORAD_CAT_ID":54686,"ELEMENT_SET_NO":999,"REV_AT_EPOCH":18012,"BSTAR":0.0004734784,"MEAN_MOTION_DOT":0.0001437,"MEAN_MOTION_DDOT":0},{"OBJECT_NAME":"STARLINK-32734","OBJECT_ID":"2024-254Q","EPOCH":"2026-03-09T05:56:12.140736","MEAN_MOTION":15.27593191,"ECCENTRICITY":0.00015942,"INCLINATION":43.004,"RA_OF_ASC_NODE":19.0143,"ARG_OF_PERICENTER":252.3822,"MEAN_ANOMALY":107.6856,"EPHEMERIS_TYPE":0,"CLASSIFICATION_TYPE":"U","NORAD_CAT_ID":62476,"ELEMENT_SET_NO":999,"REV_AT_EPOCH":6758,"BSTAR":0.0014176925,"MEAN_MOTION_DOT":0.00038972,"MEAN_MOTION_DDOT":0}]
